IRIDIUM 921 [-]         
1 24873U 97034E   23354.56967736  .00019340  00000+0  68357-3 0  9991
2 24873  86.3863  16.2227 0004172 175.0524 185.0766 15.29067391447650
IRIDIUM 26 [-]          
1 24903U 97043A   23354.92961268  .00000726  00000+0  24279-3 0  9992
2 24903  86.3956 338.9817 0002473  91.0465 269.1015 14.36123840378607
IRIDIUM 22 [-]          
1 24907U 97043E   23354.91705738  .00000656  00000+0  22346-3 0  9998
2 24907  86.3961 342.0810 0002201  91.4286 268.7162 14.35026828378694
DUMMY MASS 1 [-]        
1 24925U 97048A   23354.61124429  .00000571  00000+0  62288-4 0  9998
2 24925  86.3348  26.9338 0004441 278.8280  81.2441 14.85968159424236
DUMMY MASS 2 [-]        
1 24926U 97048B   23354.61880147  .00000564  00000+0  61854-4 0  9995
2 24926  86.3348  28.4417 0005399 294.4436  65.6224 14.85728945424021
IRIDIUM 29 [-]          
1 24944U 97051A   23354.55841968  .00000608  00000+0  20463-3 0  9999
2 24944  86.3960  12.1848 0001981  95.7513 264.3909 14.35483927375116
IRIDIUM 33 [-]          
1 24946U 97051C   23354.56036244  .00000387  00000+0  13124-3 0  9995
2 24946  86.3875  11.4517 0009765  63.2141 297.0053 14.34202892374664
IRIDIUM 28 [-]          
1 24948U 97051E   23354.54141509  .00000567  00000+0  18700-3 0  9991
2 24948  86.3965  10.0212 0002609  88.3283 271.8213 14.36425302375639
